NORAD_CAT_ID,OBJECT_NAME,OBJECT_TYPE,EPOCH,MEAN_MOTION,ECCENTRICITY,INCLINATION,RA_OF_ASC_NODE,ARG_OF_PERICENTER,MEAN_ANOMALY,BSTAR,MEAN_MOTION_DOT,MEAN_MOTION_DDOT,TLE_LINE0,TLE_LINE1,TLE_LINE2,SEMIMAJOR_AXIS,PERIOD,APOGEE,PERIGEE,DECAYED
55762.0,STARLINK-5603,PAYLOAD,2024-02-14 22:10:55,14.98320377,0.0002179,70.0014,325.0769,260.8615,99.2298,7.6946e-05,8.25e-06,0.0,0 STARLINK-5603,1 55762U 23028X   24045.92425074  .00000825  00000-0  76946-4 0  9999,2 55762  70.0014 325.0769 0002179 260.8615  99.2298 14.98320377 53627,6950.223,96.108,573.602,570.573,0.0
55762.0,STARLINK-5603,PAYLOAD,2024-02-15 02:59:19,14.98318273,0.0002467,70.001,324.5727,264.0159,96.0719,3.7443e-05,3.54e-06,0.0,0 STARLINK-5603,1 55762U 23028X   24046.12453414  .00000354  00000-0  37443-4 0  9997,2 55762  70.0010 324.5727 0002467 264.0159  96.0719 14.98318273 53658,6950.229,96.108,573.809,570.38,0.0
55762.0,STARLINK-5603,PAYLOAD,2024-02-15 04:35:27,14.98318961,0.0002439,70.0011,324.4044,263.5174,96.5707,4.7134e-05,4.69e-06,0.0,0 STARLINK-5603,1 55762U 23028X   24046.19129388  .00000469  00000-0  47134-4 0  9999,2 55762  70.0011 324.4044 0002439 263.5174  96.5707 14.98318961 53667,6950.227,96.108,573.787,570.397,0.0
55762.0,STARLINK-5603,PAYLOAD,2024-02-15 19:00:40,14.98326156,0.0002777,70.0006,322.8899,270.8205,89.2636,5.4619e-06,-2.8e-07,0.0,0 STARLINK-5603,1 55762U 23028X   24046.79213167 -.00000028  00000-0  54619-5 0  9993,2 55762  70.0006 322.8899 0002777 270.8205  89.2636 14.98326156 53757,6950.205,96.107,574.0,570.14,0.0
55762.0,STARLINK-5603,PAYLOAD,2024-02-15 22:12:56,14.98326021,0.0002779,70.0005,322.5533,270.9184,89.1656,3.0599e-06,-5.6e-07,0.0,0 STARLINK-5603,1 55762U 23028X   24046.92565212 -.00000056  00000-0  30599-5 0  9991,2 55762  70.0005 322.5533 0002779 270.9184  89.1656 14.98326021 53771,6950.205,96.107,574.002,570.139,0.0
55762.0,STARLINK-5603,PAYLOAD,2024-02-16 11:02:00,14.98334222,0.0002563,70.0004,321.2063,269.1293,90.9572,-0.00010307,-1.323e-05,0.0,0 STARLINK-5603,1 55762U 23028X   24047.45972961 -.00001323  00000-0 -10307-3 0  9995,2 55762  70.0004 321.2063 0002563 269.1293  90.9572 14.98334222 53854,6950.18,96.107,573.826,570.264,0.0
55762.0,STARLINK-5603,PAYLOAD,2024-02-16 19:02:41,14.9831811,0.0002728,70.0002,320.3647,273.9623,86.1224,0.0001722,1.962e-05,0.0,0 STARLINK-5603,1 55762U 23028X   24047.79353235  .00001962  00000-0  17220-3 0  9997,2 55762  70.0002 320.3647 0002728 273.9623  86.1224 14.98318110 53908,6950.23,96.108,573.991,570.199,0.0
55762.0,STARLINK-5603,PAYLOAD,2024-02-16 22:14:57,14.98325024,0.0002672,70.0002,320.028,274.6422,85.4432,5.6606e-05,5.82e-06,0.0,0 STARLINK-5603,1 55762U 23028X   24047.92705175  .00000582  00000-0  56606-4 0  9995,2 55762  70.0002 320.0280 0002672 274.6422  85.4432 14.98325024 53928,6950.208,96.107,573.93,570.216,0.0
55762.0,STARLINK-5603,PAYLOAD,2024-02-17 11:04:01,14.98331887,0.0002673,70.0003,318.6817,271.3985,88.6868,5.4318e-05,5.55e-06,0.0,0 STARLINK-5603,1 55762U 23028X   24048.46112741  .00000555  00000-0  54318-4 0  9994,2 55762  70.0003 318.6817 0002673 271.3985  88.6868 14.98331887 54009,6950.187,96.107,573.91,570.194,0.0
55762.0,STARLINK-5603,PAYLOAD,2024-02-17 22:16:58,14.98328645,0.0002771,70.0002,317.5038,271.4628,88.6213,3.2888e-05,2.99e-06,0.0,0 STARLINK-5603,1 55762U 23028X   24048.92844945  .00000299  00000-0  32888-4 0  9996,2 55762  70.0002 317.5038 0002771 271.4628  88.6213 14.98328645 54074,6950.197,96.107,573.988,570.136,0.0
55762.0,STARLINK-5603,PAYLOAD,2024-02-18 11:06:02,14.98336977,0.0002931,69.9991,316.1566,270.6781,89.4042,-8.9734e-06,-2e-06,0.0,0 STARLINK-5603,1 55762U 23028X   24049.46252319 -.00000200  00000-0 -89734-5 0  9991,2 55762  69.9991 316.1566 0002931 270.6781  89.4042 14.98336977 54153,6950.171,96.107,574.073,569.999,0.0
55762.0,STARLINK-5603,PAYLOAD,2024-02-18 19:06:42,14.9833004,0.000269,69.9998,315.3144,273.1863,86.8988,2.0462e-05,1.51e-06,0.0,0 STARLINK-5603,1 55762U 23028X   24049.79632715  .00000151  00000-0  20462-4 0  9994,2 55762  69.9998 315.3144 0002690 273.1863  86.8988 14.98330040 54205,6950.193,96.107,573.927,570.188,0.0
55762.0,STARLINK-5603,PAYLOAD,2024-02-18 22:18:58,14.9832946,0.000272,69.9996,314.9776,273.0056,87.0792,2.0555e-05,1.52e-06,0.0,0 STARLINK-5603,1 55762U 23028X   24049.92984730  .00000152  00000-0  20555-4 0  9990,2 55762  69.9996 314.9776 0002720 273.0056  87.0792 14.98329460 54228,6950.195,96.107,573.95,570.169,0.0
55762.0,STARLINK-5603,PAYLOAD,2024-02-19 11:08:03,14.98330055,0.0002992,70.0,313.6318,270.9888,89.0929,-5.6315e-05,-7.65e-06,0.0,0 STARLINK-5603,1 55762U 23028X   24050.46392683 -.00000765  00000-0 -56315-4 0  9996,2 55762  70.0000 313.6318 0002992 270.9888  89.0929 14.98330055 54300,6950.193,96.107,574.137,569.978,0.0
55762.0,STARLINK-5603,PAYLOAD,2024-02-19 19:08:44,14.98320818,0.0002883,69.999,312.789,268.9493,91.1336,-4.6199e-05,-6.44e-06,0.0,0 STARLINK-5603,1 55762U 23028X   24050.79773336 -.00000644  00000-0 -46199-4 0  9995,2 55762  69.9990 312.7890 0002883 268.9493  91.1336 14.98320818 54355,6950.221,96.108,574.09,570.083,0.0
55762.0,STARLINK-5603,PAYLOAD,2024-02-19 22:21:00,14.98320499,0.0002858,69.9994,312.4521,269.1545,90.9287,-5.6885e-05,-7.71e-06,0.0,0 STARLINK-5603,1 55762U 23028X   24050.93125469 -.00000771  00000-0 -56885-4 0  9993,2 55762  69.9994 312.4521 0002858 269.1545  90.9287 14.98320499 54379,6950.222,96.108,574.074,570.101,0.0
55762.0,STARLINK-5603,PAYLOAD,2024-02-20 11:10:04,14.98329017,0.0002759,69.9997,311.1065,271.2377,88.8465,-4.3913e-05,-6.17e-06,0.0,0 STARLINK-5603,1 55762U 23028X   24051.46533050 -.00000617  00000-0 -43913-4 0  9998,2 55762  69.9997 311.1065 0002759 271.2377  88.8465 14.98329017 54456,6950.196,96.107,573.978,570.143,0.0
55762.0,STARLINK-5603,PAYLOAD,2024-02-20 22:23:00,14.98330759,0.0002993,69.9991,309.9278,270.2591,89.8225,6.354e-05,6.65e-06,0.0,0 STARLINK-5603,1 55762U 23028X   24051.93264532  .00000665  00000-0  63540-4 0  9995,2 55762  69.9991 309.9278 0002993 270.2591  89.8225 14.98330759 54526,6950.191,96.107,574.136,569.975,0.0
55762.0,STARLINK-5603,PAYLOAD,2024-02-21 03:11:24,14.98338876,0.0002912,69.999,309.4227,269.6933,90.3893,8.115e-05,8.76e-06,0.0,0 STARLINK-5603,1 55762U 23028X   24052.13291897  .00000876  00000-0  81150-4 0  9993,2 55762  69.9990 309.4227 0002912 269.6933  90.3893 14.98338876 54556,6950.165,96.106,574.054,570.007,0.0
55762.0,STARLINK-5603,PAYLOAD,2024-02-21 19:12:45,14.98325139,0.000284,69.9992,307.7393,270.6391,89.4443,8.2739e-05,8.94e-06,0.0,0 STARLINK-5603,1 55762U 23028X   24052.80052702  .00000894  00000-0  82739-4 0  9991,2 55762  69.9992 307.7393 0002840 270.6391  89.4443 14.98325139 54652,6950.208,96.107,574.047,570.099,0.0
55762.0,STARLINK-5603,PAYLOAD,2024-02-21 20:48:53,14.98325158,0.0002836,69.9992,307.5708,270.1866,89.8968,7.7021e-05,8.26e-06,0.0,0 STARLINK-5603,1 55762U 23028X   24052.86728727  .00000826  00000-0  77021-4 0  9997,2 55762  69.9992 307.5708 0002836 270.1866  89.8968 14.98325158 54665,6950.208,96.107,574.044,570.102,0.0
55762.0,STARLINK-5603,PAYLOAD,2024-02-22 09:37:57,14.98329858,0.0002986,69.9989,306.2244,270.3582,89.7235,3.5559e-05,3.31e-06,0.0,0 STARLINK-5603,1 55762U 23028X   24053.40136569  .00000331  00000-0  35559-4 0  9996,2 55762  69.9989 306.2244 0002986 270.3582  89.7235 14.98329858 54741,6950.193,96.107,574.134,569.983,0.0
55762.0,STARLINK-5603,PAYLOAD,2024-02-22 19:14:46,14.98336903,0.0002859,69.999,305.2144,270.2379,89.8452,-2.1507e-05,-3.5e-06,0.0,0 STARLINK-5603,1 55762U 23028X   24053.80192237 -.00000350  00000-0 -21507-4 0  9995,2 55762  69.9990 305.2144 0002859 270.2379  89.8452 14.98336903 54801,6950.172,96.107,574.024,570.049,0.0
55762.0,STARLINK-5603,PAYLOAD,2024-02-22 20:50:54,14.98336845,0.0002862,69.999,305.0461,270.2322,89.8509,-2.1166e-05,-3.46e-06,0.0,0 STARLINK-5603,1 55762U 23028X   24053.86868208 -.00000346  00000-0 -21166-4 0  9995,2 55762  69.9990 305.0461 0002862 270.2322  89.8509 14.98336845 54812,6950.172,96.107,574.026,570.048,0.0
55762.0,STARLINK-5603,PAYLOAD,2024-02-23 09:39:58,14.9834698,0.000277,69.9991,303.6989,262.4476,97.6368,-0.00025702,-3.16e-05,0.0,0 STARLINK-5603,1 55762U 23028X   24054.40275781 -.00003160  00000-0 -25702-3 0  9990,2 55762  69.9991 303.6989 0002770 262.4476  97.6368 14.98346980 54892,6950.14,96.106,573.931,570.08,0.0
55762.0,STARLINK-5603,PAYLOAD,2024-02-23 19:16:47,14.98324815,0.0002735,69.9992,302.6894,268.5384,91.5461,-2.1501e-05,-3.49e-06,0.0,0 STARLINK-5603,1 55762U 23028X   24054.80332681 -.00000349  00000-0 -21501-4 0  9997,2 55762  69.9992 302.6894 0002735 268.5384  91.5461 14.98324815 54950,6950.209,96.107,573.975,570.173,0.0
55762.0,STARLINK-5603,PAYLOAD,2024-02-23 22:29:03,14.9832515,0.0002752,69.9993,302.3531,266.9953,93.0891,-2.0853e-05,-3.42e-06,0.0,0 STARLINK-5603,1 55762U 23028X   24054.93684679 -.00000342  00000-0 -20853-4 0  9990,2 55762  69.9993 302.3531 0002752 266.9953  93.0891 14.98325150 54978,6950.208,96.107,573.986,570.16,0.0
55762.0,STARLINK-5603,PAYLOAD,2024-02-24 09:41:59,14.98328727,0.0002857,69.9989,301.1749,269.8568,90.2264,-1.6829e-05,-2.94e-06,0.0,0 STARLINK-5603,1 55762U 23028X   24055.40416505 -.00000294  00000-0 -16829-4 0  9998,2 55762  69.9989 301.1749 0002857 269.8568  90.2264 14.98328727 55046,6950.197,96.107,574.047,570.076,0.0
55762.0,STARLINK-5603,PAYLOAD,2024-02-25 01:43:20,14.98332233,0.0002738,69.9988,299.4919,261.2602,98.8247,-1.8356e-06,-1.15e-06,0.0,0 STARLINK-5603,1 55762U 23028X   24056.07176150 -.00000115  00000-0 -18356-5 0  9991,2 55762  69.9988 299.4919 0002738 261.2602  98.8247 14.98332233 55149,6950.186,96.107,573.954,570.148,0.0
55762.0,STARLINK-5603,PAYLOAD,2024-02-25 09:44:00,14.98331703,0.0003086,69.9984,298.6495,253.5695,106.5125,-5.3805e-05,-7.35e-06,0.0,0 STARLINK-5603,1 55762U 23028X   24056.40556137 -.00000735  00000-0 -53805-4 0  9990,2 55762  69.9984 298.6495 0003086 253.5695 106.5125 14.98331703 55196,6950.188,96.107,574.197,569.908,0.0
